COSMOS 2242             
1 22626U 93024A   26068.63592072  .00002579  00000+0  22413-3 0  9999
2 22626  82.5155 266.7677 0015188 309.0278  50.9591 14.96548774780389
SL-16 R/B               
1 22803U 93059B   26068.26515900 -.00000162  00000+0 -56143-4 0  9994
2 22803  70.9927  12.0209 0018565 217.1727 142.8113 14.17231664679475
ARIANE 40 R/B           
1 22830U 93061H   26068.62874360  .00000248  00000+0  10673-3 0  9995
2 22830  98.4915 137.5176 0009536 285.3268  74.6862 14.32860974694095
COSMOS 2278             
1 23087U 94023A   26068.59771226  .00000126  00000+0  90637-4 0  9996
2 23087  71.0552 175.2897 0008021  13.4664 346.6671 14.14378928644796
SL-16 R/B               
1 23088U 94023B   26068.43213896 -.00000240  00000+0 -99429-4 0  9991
2 23088  70.9985  71.4279 0005735 286.1076  73.9415 14.15011960646059
SL-16 R/B               
1 23343U 94074B   26068.60121193  .00000608  00000+0  88151-4 0  9994
2 23343  97.7110  99.4225 0005765 210.7604 267.3723 14.79407909687232
SL-16 R/B               
1 23405U 94077B   26068.20187470 -.00000070  00000+0 -11200-4 0  9998
2 23405  70.9853 353.5151 0003132 213.1856 146.9071 14.15561083616168
ARIANE 40+ R/B          
1 23561U 95021B   26068.45967752  .00000358  00000+0  12814-3 0  9995
2 23561  98.4498 139.9455 0007651 136.9661 234.1271 14.39772237619212
SL-16 R/B               
1 23705U 95058B   26068.63285832  .00000311  00000+0  18330-3 0  9995
2 23705  71.0220 180.3742 0010794 125.9194 234.2932 14.15495190567842
SL-16 R/B               
1 24298U 96051B   26068.59943221  .00000117  00000+0  90227-4 0  9995
2 24298  70.7604 175.4299 0015073 148.1704 212.0329 14.12415696521634
ORBVIEW 2 (SEASTAR)     
1 24883U 97037A   26068.41789196  .00000392  00000+0  15259-3 0  9996
2 24883  98.8567 232.7225 0003104  72.6600 287.4924 14.35494733508431
SL-16 R/B               
1 25400U 98043G   26068.45094566  .00000104  00000+0  62589-4 0  9994
2 25400  98.8252  21.8126 0010235  21.1071 339.0529 14.26049745438952
