CCSDS_OMM_VERS = 2.0
CREATION_DATE  = 
ORIGINATOR     = 

OBJECT_NAME    = COSMOS 2242
OBJECT_ID      = 1993-024A
CENTER_NAME    = EARTH
REF_FRAME      = TEME
TIME_SYSTEM    = UTC
MEAN_ELEMENT_THEORY = SGP/SGP4

EPOCH          = 2026-03-09T15:15:43.550208
MEAN_MOTION    = 14.96548774
ECCENTRICITY   = .00151885
INCLINATION    = 82.5155
RA_OF_ASC_NODE = 266.7677
ARG_OF_PERICENTER = 309.0278
MEAN_ANOMALY   = 50.9591

EPHEMERIS_TYPE = 0
CLASSIFICATION_TYPE = U
NORAD_CAT_ID   = 22626
ELEMENT_SET_NO = 999
REV_AT_EPOCH   = 78038
BSTAR          = .22413369E-3
MEAN_MOTION_DOT = .2579E-4
MEAN_MOTION_DDOT = 0

CCSDS_OMM_VERS = 2.0
CREATION_DATE  = 
ORIGINATOR     = 

OBJECT_NAME    = SL-16 R/B
OBJECT_ID      = 1993-059B
CENTER_NAME    = EARTH
REF_FRAME      = TEME
TIME_SYSTEM    = UTC
MEAN_ELEMENT_THEORY = SGP/SGP4

EPOCH          = 2026-03-09T06:21:49.737600
MEAN_MOTION    = 14.17231664
ECCENTRICITY   = .00185652
INCLINATION    = 70.9927
RA_OF_ASC_NODE = 12.0209
ARG_OF_PERICENTER = 217.1727
MEAN_ANOMALY   = 142.8113

EPHEMERIS_TYPE = 0
CLASSIFICATION_TYPE = U
NORAD_CAT_ID   = 22803
ELEMENT_SET_NO = 999
REV_AT_EPOCH   = 67947
BSTAR          = -.56143198E-4
MEAN_MOTION_DOT = -.162E-5
MEAN_MOTION_DDOT = 0

CCSDS_OMM_VERS = 2.0
CREATION_DATE  = 
ORIGINATOR     = 

OBJECT_NAME    = ARIANE 40 R/B
OBJECT_ID      = 1993-061H
CENTER_NAME    = EARTH
REF_FRAME      = TEME
TIME_SYSTEM    = UTC
MEAN_ELEMENT_THEORY = SGP/SGP4

EPOCH          = 2026-03-09T15:05:23.447040
MEAN_MOTION    = 14.32860974
ECCENTRICITY   = .00095364
INCLINATION    = 98.4915
RA_OF_ASC_NODE = 137.5176
ARG_OF_PERICENTER = 285.3268
MEAN_ANOMALY   = 74.6862

EPHEMERIS_TYPE = 0
CLASSIFICATION_TYPE = U
NORAD_CAT_ID   = 22830
ELEMENT_SET_NO = 999
REV_AT_EPOCH   = 69409
BSTAR          = .10673117E-3
MEAN_MOTION_DOT = .248E-5
MEAN_MOTION_DDOT = 0

CCSDS_OMM_VERS = 2.0
CREATION_DATE  = 
ORIGINATOR     = 

OBJECT_NAME    = COSMOS 2278
OBJECT_ID      = 1994-023A
CENTER_NAME    = EARTH
REF_FRAME      = TEME
TIME_SYSTEM    = UTC
MEAN_ELEMENT_THEORY = SGP/SGP4

EPOCH          = 2026-03-09T14:20:42.339264
MEAN_MOTION    = 14.14378928
ECCENTRICITY   = .00080216
INCLINATION    = 71.0552
RA_OF_ASC_NODE = 175.2897
ARG_OF_PERICENTER = 13.4664
MEAN_ANOMALY   = 346.6671

EPHEMERIS_TYPE = 0
CLASSIFICATION_TYPE = U
NORAD_CAT_ID   = 23087
ELEMENT_SET_NO = 999
REV_AT_EPOCH   = 64479
BSTAR          = .90636941E-4
MEAN_MOTION_DOT = .126E-5
MEAN_MOTION_DDOT = 0

CCSDS_OMM_VERS = 2.0
CREATION_DATE  = 
ORIGINATOR     = 

OBJECT_NAME    = SL-16 R/B
OBJECT_ID      = 1994-023B
CENTER_NAME    = EARTH
REF_FRAME      = TEME
TIME_SYSTEM    = UTC
MEAN_ELEMENT_THEORY = SGP/SGP4

EPOCH          = 2026-03-09T10:22:16.806144
MEAN_MOTION    = 14.15011960
ECCENTRICITY   = .00057353
INCLINATION    = 70.9985
RA_OF_ASC_NODE = 71.4279
ARG_OF_PERICENTER = 286.1076
MEAN_ANOMALY   = 73.9415

EPHEMERIS_TYPE = 0
CLASSIFICATION_TYPE = U
NORAD_CAT_ID   = 23088
ELEMENT_SET_NO = 999
REV_AT_EPOCH   = 64605
BSTAR          = -.99429243E-4
MEAN_MOTION_DOT = -.24E-5
MEAN_MOTION_DDOT = 0

CCSDS_OMM_VERS = 2.0
CREATION_DATE  = 
ORIGINATOR     = 

OBJECT_NAME    = SL-16 R/B
OBJECT_ID      = 1994-074B
CENTER_NAME    = EARTH
REF_FRAME      = TEME
TIME_SYSTEM    = UTC
MEAN_ELEMENT_THEORY = SGP/SGP4

EPOCH          = 2026-03-09T14:25:44.710752
MEAN_MOTION    = 14.79407909
ECCENTRICITY   = .00057658
INCLINATION    = 97.7110
RA_OF_ASC_NODE = 99.4225
ARG_OF_PERICENTER = 210.7604
MEAN_ANOMALY   = 267.3723

EPHEMERIS_TYPE = 0
CLASSIFICATION_TYPE = U
NORAD_CAT_ID   = 23343
ELEMENT_SET_NO = 999
REV_AT_EPOCH   = 68723
BSTAR          = .88151338E-4
MEAN_MOTION_DOT = .608E-5
MEAN_MOTION_DDOT = 0

CCSDS_OMM_VERS = 2.0
CREATION_DATE  = 
ORIGINATOR     = 

OBJECT_NAME    = SL-16 R/B
OBJECT_ID      = 1994-077B
CENTER_NAME    = EARTH
REF_FRAME      = TEME
TIME_SYSTEM    = UTC
MEAN_ELEMENT_THEORY = SGP/SGP4

EPOCH          = 2026-03-09T04:50:41.974080
MEAN_MOTION    = 14.15561083
ECCENTRICITY   = .00031324
INCLINATION    = 70.9853
RA_OF_ASC_NODE = 353.5151
ARG_OF_PERICENTER = 213.1856
MEAN_ANOMALY   = 146.9071

EPHEMERIS_TYPE = 0
CLASSIFICATION_TYPE = U
NORAD_CAT_ID   = 23405
ELEMENT_SET_NO = 999
REV_AT_EPOCH   = 61616
BSTAR          = -.11200386E-4
MEAN_MOTION_DOT = -.7E-6
MEAN_MOTION_DDOT = 0

CCSDS_OMM_VERS = 2.0
CREATION_DATE  = 
ORIGINATOR     = 

OBJECT_NAME    = ARIANE 40+ R/B
OBJECT_ID      = 1995-021B
CENTER_NAME    = EARTH
REF_FRAME      = TEME
TIME_SYSTEM    = UTC
MEAN_ELEMENT_THEORY = SGP/SGP4

EPOCH          = 2026-03-09T11:01:56.137728
MEAN_MOTION    = 14.39772237
ECCENTRICITY   = .0007651
INCLINATION    = 98.4498
RA_OF_ASC_NODE = 139.9455
ARG_OF_PERICENTER = 136.9661
MEAN_ANOMALY   = 234.1271

EPHEMERIS_TYPE = 0
CLASSIFICATION_TYPE = U
NORAD_CAT_ID   = 23561
ELEMENT_SET_NO = 999
REV_AT_EPOCH   = 61921
BSTAR          = .12814354E-3
MEAN_MOTION_DOT = .358E-5
MEAN_MOTION_DDOT = 0

CCSDS_OMM_VERS = 2.0
CREATION_DATE  = 
ORIGINATOR     = 

OBJECT_NAME    = SL-16 R/B
OBJECT_ID      = 1995-058B
CENTER_NAME    = EARTH
REF_FRAME      = TEME
TIME_SYSTEM    = UTC
MEAN_ELEMENT_THEORY = SGP/SGP4

EPOCH          = 2026-03-09T15:11:18.958848
MEAN_MOTION    = 14.15495190
ECCENTRICITY   = .00107948
INCLINATION    = 71.0220
RA_OF_ASC_NODE = 180.3742
ARG_OF_PERICENTER = 125.9194
MEAN_ANOMALY   = 234.2932

EPHEMERIS_TYPE = 0
CLASSIFICATION_TYPE = U
NORAD_CAT_ID   = 23705
ELEMENT_SET_NO = 999
REV_AT_EPOCH   = 56784
BSTAR          = .18330318E-3
MEAN_MOTION_DOT = .311E-5
MEAN_MOTION_DDOT = 0

CCSDS_OMM_VERS = 2.0
CREATION_DATE  = 
ORIGINATOR     = 

OBJECT_NAME    = SL-16 R/B
OBJECT_ID      = 1996-051B
CENTER_NAME    = EARTH
REF_FRAME      = TEME
TIME_SYSTEM    = UTC
MEAN_ELEMENT_THEORY = SGP/SGP4

EPOCH          = 2026-03-09T14:23:10.942944
MEAN_MOTION    = 14.12415696
ECCENTRICITY   = .00150737
INCLINATION    = 70.7604
RA_OF_ASC_NODE = 175.4299
ARG_OF_PERICENTER = 148.1704
MEAN_ANOMALY   = 212.0329

EPHEMERIS_TYPE = 0
CLASSIFICATION_TYPE = U
NORAD_CAT_ID   = 24298
ELEMENT_SET_NO = 999
REV_AT_EPOCH   = 52163
BSTAR          = .90227216E-4
MEAN_MOTION_DOT = .117E-5
MEAN_MOTION_DDOT = 0

CCSDS_OMM_VERS = 2.0
CREATION_DATE  = 
ORIGINATOR     = 

OBJECT_NAME    = ORBVIEW 2 (SEASTAR)
OBJECT_ID      = 1997-037A
CENTER_NAME    = EARTH
REF_FRAME      = TEME
TIME_SYSTEM    = UTC
MEAN_ELEMENT_THEORY = SGP/SGP4

EPOCH          = 2026-03-09T10:01:45.865344
MEAN_MOTION    = 14.35494733
ECCENTRICITY   = .00031049
INCLINATION    = 98.8567
RA_OF_ASC_NODE = 232.7225
ARG_OF_PERICENTER = 72.6600
MEAN_ANOMALY   = 287.4924

EPHEMERIS_TYPE = 0
CLASSIFICATION_TYPE = U
NORAD_CAT_ID   = 24883
ELEMENT_SET_NO = 999
REV_AT_EPOCH   = 50843
BSTAR          = .15259071E-3
MEAN_MOTION_DOT = .392E-5
MEAN_MOTION_DDOT = 0

CCSDS_OMM_VERS = 2.0
CREATION_DATE  = 
ORIGINATOR     = 

OBJECT_NAME    = SL-16 R/B
OBJECT_ID      = 1998-043G
CENTER_NAME    = EARTH
REF_FRAME      = TEME
TIME_SYSTEM    = UTC
MEAN_ELEMENT_THEORY = SGP/SGP4

EPOCH          = 2026-03-09T10:49:21.705024
MEAN_MOTION    = 14.26049745
ECCENTRICITY   = .0010235
INCLINATION    = 98.8252
RA_OF_ASC_NODE = 21.8126
ARG_OF_PERICENTER = 21.1071
MEAN_ANOMALY   = 339.0529

EPHEMERIS_TYPE = 0
CLASSIFICATION_TYPE = U
NORAD_CAT_ID   = 25400
ELEMENT_SET_NO = 999
REV_AT_EPOCH   = 43895
BSTAR          = .62589441E-4
MEAN_MOTION_DOT = .104E-5
MEAN_MOTION_DDOT = 0

